STARLINK-37775          
1 69348U 26122V   26166.16668980  .00030746  00000+0  16048-3 0  9999
2 69348  97.2836 195.5526 0001597 126.9066 176.9965 15.80844852  3036
STARLINK-37777          
1 69349U 26122W   26166.16668980  .00027837  00000+0  14545-3 0  9997
2 69349  97.2828 195.5521 0001341 107.1374 197.5544 15.80839465  3039
STARLINK-37779          
1 69350U 26122X   26166.16668980  .00017807  00000+0  93495-4 0  9997
2 69350  97.2835 195.5557 0000573  92.5847 219.0828 15.80821263  3038
STARLINK-37549          
1 69351U 26122Y   26166.16668980 -.00013634  00000+0 -70281-4 0  9992
2 69351  97.2835 195.5482 0001834  96.3905 199.5025 15.80896668  3036
STARLINK-37778          
1 69352U 26122Z   26166.16668980 -.00052035  00000+0 -27207-3 0  9990
2 69352  97.2832 195.5587 0001301  93.3066 225.6800 15.80852834  3033
STARLINK-37651          
1 69353U 26123A   26166.16668980  .00099394  00000+0  50173-3 0  9997
2 69353  53.1586 251.9323 0001290  84.9132  15.3917 15.80855619  2826
STARLINK-37652          
1 69354U 26123B   26166.16668980  .00131944  00000+0  66343-3 0  9992
2 69354  53.1585 251.9462 0000960  99.9550 353.8653 15.80821567  2825
STARLINK-37593          
1 69355U 26123C   26166.16668980  .00154812  00000+0  77627-3 0  9999
2 69355  53.1584 251.9353 0001030 110.9406 347.8438 15.80806805  2874
STARLINK-37597          
1 69356U 26123D   26166.16668980  .00059129  00000+0  30108-3 0  9998
2 69356  53.1585 251.9163 0001036  89.7932  18.2493 15.80871950  2871
STARLINK-37598          
1 69357U 26123E   26166.16668980  .00140328  00000+0  70475-3 0  9992
2 69357  53.1587 251.8910 0001000  84.9198  35.0756 15.80819219  2874
STARLINK-37602          
1 69358U 26123F   26166.16668980 -.01914132  00000+0 -12239-1 0  9990
2 69358  53.1589 251.8854 0001072  89.7613  33.2736 15.78800789  2875
STARLINK-37600          
1 69359U 26123G   26166.16668980 -.01896270  00000+0 -11313-1 0  9995
2 69359  53.1589 251.8476 0001252  71.0374  70.4795 15.80272341  2872
STARLINK-37599          
1 69360U 26123H   26166.16668980  .00051252  00000+0  26180-3 0  9997
2 69360  53.1584 251.7699 0001064  86.7700  92.2741 15.80861852  2821
STARLINK-37039          
1 69361U 26123J   26166.16668980  .00109256  00000+0  55120-3 0  9992
2 69361  53.1588 251.8263 0001223  74.6087  76.4056 15.80829404  2825
STARLINK-37040          
1 69362U 26123K   26166.16668980 -.02142573  00000+0 -10869-1 0  9995
2 69362  53.1574 251.6074 0000761  98.3944 158.5784 15.84119683  2825
STARLINK-37582          
1 69363U 26123L   26166.16668980  .00098879  00000+0  49990-3 0  9990
2 69363  53.1585 251.7705 0000794  58.5683 119.7465 15.80824416  2822
STARLINK-37309          
1 69364U 26123M   26166.16668980 -.01968332  00000+0 -85519-2 0  9990
2 69364  53.1563 251.5097 0000650  81.8697 222.3533 15.86990152  2965
STARLINK-37436          
1 69365U 26123N   26166.16668980 -.02066786  00000+0 -89459-2 0  9991
2 69365  53.1565 251.4741 0000845  76.5634 244.6988 15.87218366  2963
STARLINK-37581          
1 69366U 26123P   26166.16668980 -.02150574  00000+0 -10355-1 0  9999
2 69366  53.1570 251.5017 0000888  79.6202 228.4686 15.85203971  2812
STARLINK-37683          
1 69367U 26123Q   26166.16668980 -.02186307  00000+0 -98517-2 0  9990
2 69367  53.1567 251.4642 0000653  81.1269 244.8939 15.86609521  2829
STARLINK-37687          
1 69368U 26123R   26166.16668980 -.02103491  00000+0 -92711-2 0  9994
2 69368  53.1566 251.4188 0000827  75.3998 272.4609 15.86915031  2828
STARLINK-37631          
1 69369U 26123S   26166.16668980 -.02122336  00000+0 -98687-2 0  9992
2 69369  53.1567 251.4190 0000681  68.8743 279.0491 15.85868313  2872
STARLINK-37673          
1 69370U 26123T   26166.16668980 -.02087928  00000+0 -99600-2 0  9997
2 69370  53.1567 251.4096 0000765  96.0862 256.2665 15.85290174  2882
STARLINK-37645          
1 69371U 26123U   26166.16668980 -.02045913  00000+0 -10213-1 0  9998
2 69371  53.1574 251.4256 0000734  81.5375 263.0430 15.84288330  2889
STARLINK-37688          
1 69372U 26123V   26166.16668980 -.02014210  00000+0 -10432-1 0  9998
2 69372  53.1575 251.3906 0000639  79.1372 282.0895 15.83472693  2888
STARLINK-37685          
1 69373U 26123W   26166.16668980 -.02084130  00000+0 -10928-1 0  9997
2 69373  53.1574 251.3837 0000641  85.2604 279.1705 15.83335017  2885
STARLINK-37632          
1 69374U 26123X   26166.16668980 -.02025079  00000+0 -10482-1 0  9990
2 69374  53.1571 251.3757 0000410  90.0210 278.2454 15.83507182  2835
STARLINK-37454          
1 69375U 26123Y   26166.16668980 -.02074458  00000+0 -10846-1 0  9990
2 69375  53.1571 251.3616 0000607  74.5556 300.2463 15.83378998  2970
STARLINK-37485          
1 69376U 26123Z   26166.16668980 -.02096605  00000+0 -10985-1 0  9993
2 69376  53.1571 251.3528 0000596  83.8102 295.2323 15.83372870  2971
STARLINK-37439          
1 69377U 26123AA  26166.16668980 -.02150097  00000+0 -10399-1 0  9999
2 69377  53.1556 251.2777 0000736  84.3292 330.8948 15.85112707  2839
