OBJECT_NAME,OBJECT_ID,EPOCH,MEAN_MOTION,ECCENTRICITY,INCLINATION,RA_OF_ASC_NODE,ARG_OF_PERICENTER,MEAN_ANOMALY,EPHEMERIS_TYPE,CLASSIFICATION_TYPE,NORAD_CAT_ID,ELEMENT_SET_NO,REV_AT_EPOCH,BSTAR,MEAN_MOTION_DOT,MEAN_MOTION_DDOT
STARLINK-37775,2026-122V,2026-06-15T04:00:01.998720,15.80844852,.0001597,97.2836,195.5526,126.9066,176.9965,0,U,69348,999,303,.16048E-3,.30746E-3,0
STARLINK-37777,2026-122W,2026-06-15T04:00:01.998720,15.80839465,.0001341,97.2828,195.5521,107.1374,197.5544,0,U,69349,999,303,.14545E-3,.27837E-3,0
STARLINK-37779,2026-122X,2026-06-15T04:00:01.998720,15.80821263,.0000573,97.2835,195.5557,92.5847,219.0828,0,U,69350,999,303,.93495E-4,.17807E-3,0
STARLINK-37549,2026-122Y,2026-06-15T04:00:01.998720,15.80896668,.0001834,97.2835,195.5482,96.3905,199.5025,0,U,69351,999,303,-.70281E-4,-.13634E-3,0
STARLINK-37778,2026-122Z,2026-06-15T04:00:01.998720,15.80852834,.0001301,97.2832,195.5587,93.3066,225.6800,0,U,69352,999,303,-.27207E-3,-.52035E-3,0
STARLINK-37651,2026-123A,2026-06-15T04:00:01.998720,15.80855619,.000129,53.1586,251.9323,84.9132,15.3917,0,U,69353,999,282,.50173E-3,.99394E-3,0
STARLINK-37652,2026-123B,2026-06-15T04:00:01.998720,15.80821567,.000096,53.1585,251.9462,99.9550,353.8653,0,U,69354,999,282,.66343E-3,.131944E-2,0
STARLINK-37593,2026-123C,2026-06-15T04:00:01.998720,15.80806805,.000103,53.1584,251.9353,110.9406,347.8438,0,U,69355,999,287,.77627E-3,.154812E-2,0
STARLINK-37597,2026-123D,2026-06-15T04:00:01.998720,15.80871950,.0001036,53.1585,251.9163,89.7932,18.2493,0,U,69356,999,287,.30108E-3,.59129E-3,0
STARLINK-37598,2026-123E,2026-06-15T04:00:01.998720,15.80819219,.0001,53.1587,251.8910,84.9198,35.0756,0,U,69357,999,287,.70475E-3,.140328E-2,0
STARLINK-37602,2026-123F,2026-06-15T04:00:01.998720,15.78800789,.0001072,53.1589,251.8854,89.7613,33.2736,0,U,69358,999,287,-.12239E-1,-.1914132E-1,0
STARLINK-37600,2026-123G,2026-06-15T04:00:01.998720,15.80272341,.0001252,53.1589,251.8476,71.0374,70.4795,0,U,69359,999,287,-.11313E-1,-.189627E-1,0
STARLINK-37599,2026-123H,2026-06-15T04:00:01.998720,15.80861852,.0001064,53.1584,251.7699,86.7700,92.2741,0,U,69360,999,282,.2618E-3,.51252E-3,0
STARLINK-37039,2026-123J,2026-06-15T04:00:01.998720,15.80829404,.0001223,53.1588,251.8263,74.6087,76.4056,0,U,69361,999,282,.5512E-3,.109256E-2,0
STARLINK-37040,2026-123K,2026-06-15T04:00:01.998720,15.84119683,.0000761,53.1574,251.6074,98.3944,158.5784,0,U,69362,999,282,-.10869E-1,-.2142573E-1,0
STARLINK-37582,2026-123L,2026-06-15T04:00:01.998720,15.80824416,.0000794,53.1585,251.7705,58.5683,119.7465,0,U,69363,999,282,.4999E-3,.98879E-3,0
STARLINK-37309,2026-123M,2026-06-15T04:00:01.998720,15.86990152,.000065,53.1563,251.5097,81.8697,222.3533,0,U,69364,999,296,-.85519E-2,-.1968332E-1,0
STARLINK-37436,2026-123N,2026-06-15T04:00:01.998720,15.87218366,.0000845,53.1565,251.4741,76.5634,244.6988,0,U,69365,999,296,-.89459E-2,-.2066786E-1,0
STARLINK-37581,2026-123P,2026-06-15T04:00:01.998720,15.85203971,.0000888,53.1570,251.5017,79.6202,228.4686,0,U,69366,999,281,-.10355E-1,-.2150574E-1,0
STARLINK-37683,2026-123Q,2026-06-15T04:00:01.998720,15.86609521,.0000653,53.1567,251.4642,81.1269,244.8939,0,U,69367,999,282,-.98517E-2,-.2186307E-1,0
STARLINK-37687,2026-123R,2026-06-15T04:00:01.998720,15.86915031,.0000827,53.1566,251.4188,75.3998,272.4609,0,U,69368,999,282,-.92711E-2,-.2103491E-1,0
STARLINK-37631,2026-123S,2026-06-15T04:00:01.998720,15.85868313,.0000681,53.1567,251.4190,68.8743,279.0491,0,U,69369,999,287,-.98687E-2,-.2122336E-1,0
STARLINK-37673,2026-123T,2026-06-15T04:00:01.998720,15.85290174,.0000765,53.1567,251.4096,96.0862,256.2665,0,U,69370,999,288,-.996E-2,-.2087928E-1,0
STARLINK-37645,2026-123U,2026-06-15T04:00:01.998720,15.84288330,.0000734,53.1574,251.4256,81.5375,263.0430,0,U,69371,999,288,-.10213E-1,-.2045913E-1,0
STARLINK-37688,2026-123V,2026-06-15T04:00:01.998720,15.83472693,.0000639,53.1575,251.3906,79.1372,282.0895,0,U,69372,999,288,-.10432E-1,-.201421E-1,0
STARLINK-37685,2026-123W,2026-06-15T04:00:01.998720,15.83335017,.0000641,53.1574,251.3837,85.2604,279.1705,0,U,69373,999,288,-.10928E-1,-.208413E-1,0
STARLINK-37632,2026-123X,2026-06-15T04:00:01.998720,15.83507182,.000041,53.1571,251.3757,90.0210,278.2454,0,U,69374,999,283,-.10482E-1,-.2025079E-1,0
STARLINK-37454,2026-123Y,2026-06-15T04:00:01.998720,15.83378998,.0000607,53.1571,251.3616,74.5556,300.2463,0,U,69375,999,297,-.10846E-1,-.2074458E-1,0
STARLINK-37485,2026-123Z,2026-06-15T04:00:01.998720,15.83372870,.0000596,53.1571,251.3528,83.8102,295.2323,0,U,69376,999,297,-.10985E-1,-.2096605E-1,0
STARLINK-37439,2026-123AA,2026-06-15T04:00:01.998720,15.85112707,.0000736,53.1556,251.2777,84.3292,330.8948,0,U,69377,999,283,-.10399E-1,-.2150097E-1,0
